[{"CCSDS_OMM_VERS":"2.0","COMMENT":"GENERATED VIA SPACE-TRACK.ORG API","CREATION_DATE":"2021-04-11T18:26:10","ORIGINATOR":"18 SPCS","OBJECT_NAME":"STARLINK-1098","OBJECT_ID":"2020-001D","CENTER_NAME":"EARTH","REF_FRAME":"TEME","TIME_SYSTEM":"UTC","MEAN_ELEMENT_THEORY":"SGP4","EPOCH":"2021-04-11T13:29:03.187680","MEAN_MOTION":"15.06402841","ECCENTRICITY":"0.00005680","INCLINATION":"53.0571","RA_OF_ASC_NODE":"116.2603","ARG_OF_PERICENTER":"91.4208","MEAN_ANOMALY":"268.6846","EPHEMERIS_TYPE":"0","CLASSIFICATION_TYPE":"U","NORAD_CAT_ID":"44917","ELEMENT_SET_NO":"999","REV_AT_EPOCH":"6958","BSTAR":"0.00004126300000","MEAN_MOTION_DOT":"0.00000334","MEAN_MOTION_DDOT":"0.0000000000000","SEMIMAJOR_AXIS":"6925.340","PERIOD":"95.592","APOAPSIS":"547.598","PERIAPSIS":"546.811","OBJECT_TYPE":"PAYLOAD","RCS_SIZE":"LARGE","COUNTRY_CODE":"US","LAUNCH_DATE":"2020-01-07","SITE":"AFETR","DECAY_DATE":null,"FILE":"3015419","GP_ID":"175370096","TLE_LINE0":"0 STARLINK-1098","TLE_LINE1":"1 44917U 20001D   21101.56184245  .00000334  00000-0  41263-4 0  9998","TLE_LINE2":"2 44917  53.0571 116.2603 0000568  91.4208 268.6846 15.06402841 69589"},{"CCSDS_OMM_VERS":"2.0","COMMENT":"GENERATED VIA SPACE-TRACK.ORG API","CREATION_DATE":"2021-04-12T02:18:20","ORIGINATOR":"18 SPCS","OBJECT_NAME":"STARLINK-1098","OBJECT_ID":"2020-001D","CENTER_NAME":"EARTH","REF_FRAME":"TEME","TIME_SYSTEM":"UTC","MEAN_ELEMENT_THEORY":"SGP4","EPOCH":"2021-04-11T18:15:40.203072","MEAN_MOTION":"15.06403230","ECCENTRICITY":"0.00005620","INCLINATION":"53.0571","RA_OF_ASC_NODE":"115.3668","ARG_OF_PERICENTER":"89.7864","MEAN_ANOMALY":"270.3189","EPHEMERIS_TYPE":"0","CLASSIFICATION_TYPE":"U","NORAD_CAT_ID":"44917","ELEMENT_SET_NO":"999","REV_AT_EPOCH":"6961","BSTAR":"0.00003870800000","MEAN_MOTION_DOT":"0.00000296","MEAN_MOTION_DDOT":"0.0000000000000","SEMIMAJOR_AXIS":"6925.339","PERIOD":"95.592","APOAPSIS":"547.593","PERIAPSIS":"546.814","OBJECT_TYPE":"PAYLOAD","RCS_SIZE":"LARGE","COUNTRY_CODE":"US","LAUNCH_DATE":"2020-01-07","SITE":"AFETR","DECAY_DATE":null,"FILE":"3015786","GP_ID":"175400770","TLE_LINE0":"0 STARLINK-1098","TLE_LINE1":"1 44917U 20001D   21101.76088198  .00000296  00000-0  38708-4 0  9997","TLE_LINE2":"2 44917  53.0571 115.3668 0000562  89.7864 270.3189 15.06403230 69619"},{"CCSDS_OMM_VERS":"2.0","COMMENT":"GENERATED VIA SPACE-TRACK.ORG API","CREATION_DATE":"2021-04-12T17:29:01","ORIGINATOR":"18 SPCS","OBJECT_NAME":"STARLINK-1098","OBJECT_ID":"2020-001D","CENTER_NAME":"EARTH","REF_FRAME":"TEME","TIME_SYSTEM":"UTC","MEAN_ELEMENT_THEORY":"SGP4","EPOCH":"2021-04-12T11:46:35.808672","MEAN_MOTION":"15.06405612","ECCENTRICITY":"0.00005580","INCLINATION":"53.0572","RA_OF_ASC_NODE":"112.0908","ARG_OF_PERICENTER":"83.5565","MEAN_ANOMALY":"276.5487","EPHEMERIS_TYPE":"0","CLASSIFICATION_TYPE":"U","NORAD_CAT_ID":"44917","ELEMENT_SET_NO":"999","REV_AT_EPOCH":"6972","BSTAR":"0.00003909100000","MEAN_MOTION_DOT":"0.00000301","MEAN_MOTION_DDOT":"0.0000000000000","SEMIMAJOR_AXIS":"6925.331","PERIOD":"95.592","APOAPSIS":"547.583","PERIAPSIS":"546.810","OBJECT_TYPE":"PAYLOAD","RCS_SIZE":"LARGE","COUNTRY_CODE":"US","LAUNCH_DATE":"2020-01-07","SITE":"AFETR","DECAY_DATE":null,"FILE":"3016184","GP_ID":"175430815","TLE_LINE0":"0 STARLINK-1098","TLE_LINE1":"1 44917U 20001D   21102.49069223  .00000301  00000-0  39091-4 0  9999","TLE_LINE2":"2 44917  53.0572 112.0908 0000558  83.5565 276.5487 15.06405612 69723"},{"CCSDS_OMM_VERS":"2.0","COMMENT":"GENERATED VIA SPACE-TRACK.ORG API","CREATION_DATE":"2021-04-13T06:56:13","ORIGINATOR":"18 SPCS","OBJECT_NAME":"STARLINK-1098","OBJECT_ID":"2020-001D","CENTER_NAME":"EARTH","REF_FRAME":"TEME","TIME_SYSTEM":"UTC","MEAN_ELEMENT_THEORY":"SGP4","EPOCH":"2021-04-13T03:41:59.123328","MEAN_MOTION":"15.06406252","ECCENTRICITY":"0.00005510","INCLINATION":"53.0573","RA_OF_ASC_NODE":"109.1124","ARG_OF_PERICENTER":"78.9234","MEAN_ANOMALY":"281.1817","EPHEMERIS_TYPE":"0","CLASSIFICATION_TYPE":"U","NORAD_CAT_ID":"44917","ELEMENT_SET_NO":"999","REV_AT_EPOCH":"6982","BSTAR":"0.00003211100000","MEAN_MOTION_DOT":"0.00000197","MEAN_MOTION_DDOT":"0.0000000000000","SEMIMAJOR_AXIS":"6925.329","PERIOD":"95.592","APOAPSIS":"547.576","PERIAPSIS":"546.813","OBJECT_TYPE":"PAYLOAD","RCS_SIZE":"LARGE","COUNTRY_CODE":"US","LAUNCH_DATE":"2020-01-07","SITE":"AFETR","DECAY_DATE":null,"FILE":"3017030","GP_ID":"175451912","TLE_LINE0":"0 STARLINK-1098","TLE_LINE1":"1 44917U 20001D   21103.15415652  .00000197  00000-0  32111-4 0  9993","TLE_LINE2":"2 44917  53.0573 109.1124 0000551  78.9234 281.1817 15.06406252 69826"},{"CCSDS_OMM_VERS":"2.0","COMMENT":"GENERATED VIA SPACE-TRACK.ORG API","CREATION_DATE":"2021-04-14T07:06:22","ORIGINATOR":"18 SPCS","OBJECT_NAME":"STARLINK-1098","OBJECT_ID":"2020-001D","CENTER_NAME":"EARTH","REF_FRAME":"TEME","TIME_SYSTEM":"UTC","MEAN_ELEMENT_THEORY":"SGP4","EPOCH":"2021-04-14T03:35:04.626240","MEAN_MOTION":"15.06400977","ECCENTRICITY":"0.00005820","INCLINATION":"53.0574","RA_OF_ASC_NODE":"104.6451","ARG_OF_PERICENTER":"73.3839","MEAN_ANOMALY":"286.7214","EPHEMERIS_TYPE":"0","CLASSIFICATION_TYPE":"U","NORAD_CAT_ID":"44917","ELEMENT_SET_NO":"999","REV_AT_EPOCH":"6997","BSTAR":"-0.00001750000000","MEAN_MOTION_DOT":"-0.00000542","MEAN_MOTION_DDOT":"0.0000000000000","SEMIMAJOR_AXIS":"6925.346","PERIOD":"95.592","APOAPSIS":"547.614","PERIAPSIS":"546.808","OBJECT_TYPE":"PAYLOAD","RCS_SIZE":"LARGE","COUNTRY_CODE":"US","LAUNCH_DATE":"2020-01-07","SITE":"AFETR","DECAY_DATE":null,"FILE":"3017703","GP_ID":"175465537","TLE_LINE0":"0 STARLINK-1098","TLE_LINE1":"1 44917U 20001D   21104.14935910 -.00000542  00000-0 -17500-4 0  9998","TLE_LINE2":"2 44917  53.0574 104.6451 0000582  73.3839 286.7214 15.06400977 69970"},{"CCSDS_OMM_VERS":"2.0","COMMENT":"GENERATED VIA SPACE-TRACK.ORG API","CREATION_DATE":"2021-04-14T18:24:19","ORIGINATOR":"18 SPCS","OBJECT_NAME":"STARLINK-1098","OBJECT_ID":"2020-001D","CENTER_NAME":"EARTH","REF_FRAME":"TEME","TIME_SYSTEM":"UTC","MEAN_ELEMENT_THEORY":"SGP4","EPOCH":"2021-04-14T09:57:14.616000","MEAN_MOTION":"15.06394713","ECCENTRICITY":"0.00005920","INCLINATION":"53.0574","RA_OF_ASC_NODE":"103.4536","ARG_OF_PERICENTER":"72.8285","MEAN_ANOMALY":"287.2768","EPHEMERIS_TYPE":"0","CLASSIFICATION_TYPE":"U","NORAD_CAT_ID":"44917","ELEMENT_SET_NO":"999","REV_AT_EPOCH":"7001","BSTAR":"-0.00008449000000","MEAN_MOTION_DOT":"-0.00001539","MEAN_MOTION_DDOT":"0.0000000000000","SEMIMAJOR_AXIS":"6925.365","PERIOD":"95.592","APOAPSIS":"547.640","PERIAPSIS":"546.820","OBJECT_TYPE":"PAYLOAD","RCS_SIZE":"LARGE","COUNTRY_CODE":"US","LAUNCH_DATE":"2020-01-07","SITE":"AFETR","DECAY_DATE":null,"FILE":"3018026","GP_ID":"175493062","TLE_LINE0":"0 STARLINK-1098","TLE_LINE1":"1 44917U 20001D   21104.41475250 -.00001539  00000-0 -84490-4 0  9993","TLE_LINE2":"2 44917  53.0574 103.4536 0000592  72.8285 287.2768 15.06394713 70018"},{"CCSDS_OMM_VERS":"2.0","COMMENT":"GENERATED VIA SPACE-TRACK.ORG API","CREATION_DATE":"2021-04-14T16:16:11","ORIGINATOR":"18 SPCS","OBJECT_NAME":"STARLINK-1098","OBJECT_ID":"2020-001D","CENTER_NAME":"EARTH","REF_FRAME":"TEME","TIME_SYSTEM":"UTC","MEAN_ELEMENT_THEORY":"SGP4","EPOCH":"2021-04-14T09:57:14.616000","MEAN_MOTION":"15.06394713","ECCENTRICITY":"0.00005920","INCLINATION":"53.0574","RA_OF_ASC_NODE":"103.4536","ARG_OF_PERICENTER":"72.8285","MEAN_ANOMALY":"287.2768","EPHEMERIS_TYPE":"0","CLASSIFICATION_TYPE":"U","NORAD_CAT_ID":"44917","ELEMENT_SET_NO":"999","REV_AT_EPOCH":"7001","BSTAR":"-0.00008449000000","MEAN_MOTION_DOT":"-0.00001539","MEAN_MOTION_DDOT":"0.0000000000000","SEMIMAJOR_AXIS":"6925.365","PERIOD":"95.592","APOAPSIS":"547.640","PERIAPSIS":"546.820","OBJECT_TYPE":"PAYLOAD","RCS_SIZE":"LARGE","COUNTRY_CODE":"US","LAUNCH_DATE":"2020-01-07","SITE":"AFETR","DECAY_DATE":null,"FILE":"3017990","GP_ID":"175472178","TLE_LINE0":"0 STARLINK-1098","TLE_LINE1":"1 44917U 20001D   21104.41475250 -.00001539  00000-0 -84490-4 0  9993","TLE_LINE2":"2 44917  53.0574 103.4536 0000592  72.8285 287.2768 15.06394713 70018"},{"CCSDS_OMM_VERS":"2.0","COMMENT":"GENERATED VIA SPACE-TRACK.ORG API","CREATION_DATE":"2021-04-15T14:56:12","ORIGINATOR":"18 SPCS","OBJECT_NAME":"STARLINK-1098","OBJECT_ID":"2020-001D","CENTER_NAME":"EARTH","REF_FRAME":"TEME","TIME_SYSTEM":"UTC","MEAN_ELEMENT_THEORY":"SGP4","EPOCH":"2021-04-15T11:25:52.712256","MEAN_MOTION":"15.06393649","ECCENTRICITY":"0.00006980","INCLINATION":"53.0573","RA_OF_ASC_NODE":"98.6886","ARG_OF_PERICENTER":"70.9785","MEAN_ANOMALY":"289.1280","EPHEMERIS_TYPE":"0","CLASSIFICATION_TYPE":"U","NORAD_CAT_ID":"44917","ELEMENT_SET_NO":"999","REV_AT_EPOCH":"7017","BSTAR":"-0.00006792100000","MEAN_MOTION_DOT":"-0.00001292","MEAN_MOTION_DDOT":"0.0000000000000","SEMIMAJOR_AXIS":"6925.368","PERIOD":"95.593","APOAPSIS":"547.716","PERIAPSIS":"546.750","OBJECT_TYPE":"PAYLOAD","RCS_SIZE":"LARGE","COUNTRY_CODE":"US","LAUNCH_DATE":"2020-01-07","SITE":"AFETR","DECAY_DATE":null,"FILE":"3018560","GP_ID":"175508060","TLE_LINE0":"0 STARLINK-1098","TLE_LINE1":"1 44917U 20001D   21105.47630454 -.00001292  00000-0 -67921-4 0  9995","TLE_LINE2":"2 44917  53.0573  98.6886 0000698  70.9785 289.1280 15.06393649 70175"}]